[{"OBJECT_NAME":"ONEWEB-0253","OBJECT_ID":"2021-060E","EPOCH":"2026-03-09T23:20:38.093568","MEAN_MOTION":13.16595437,"ECCENTRICITY":0.00017109,"INCLINATION":87.9003,"RA_OF_ASC_NODE":248.5098,"ARG_OF_PERICENTER":97.498,"MEAN_ANOMALY":262.6345,"EPHEMERIS_TYPE":0,"CLASSIFICATION_TYPE":"U","NORAD_CAT_ID":48971,"ELEMENT_SET_NO":999,"REV_AT_EPOCH":22653,"BSTAR":-9.0600134e-5,"MEAN_MOTION_DOT":-2.2e-7,"MEAN_MOTION_DDOT":0},{"OBJECT_NAME":"SL-14 DEB","OBJECT_ID":"1991-056AS","EPOCH":"2026-03-06T05:18:41.193504","MEAN_MOTION":13.23680313,"ECCENTRICITY":0.00486112,"INCLINATION":82.6919,"RA_OF_ASC_NODE":251.6281,"ARG_OF_PERICENTER":89.2287,"MEAN_ANOMALY":271.4409,"EPHEMERIS_TYPE":0,"CLASSIFICATION_TYPE":"U","NORAD_CAT_ID":45304,"ELEMENT_SET_NO":999,"REV_AT_EPOCH":28890,"BSTAR":0.0066501942,"MEAN_MOTION_DOT":2.855e-5,"MEAN_MOTION_DDOT":0}]
